LANDSAT 9               
1 49260U 21088A   23296.16279925  .00000739  00000+0  17414-3 0  9991
2 49260  98.2176   4.4447 0001112  91.0052 269.1274 14.57116417110023
